{
"type": "FeatureCollection",
"name": "canal_centerline",
"crs": { "type": "name", "properties": { "name": "urn:ogc:def:crs:OGC:1.3:CRS84" } },
"features": [
{ "type": "Feature", "properties": { "id": null }, "geometry": { "type": "MultiLineString", "coordinates": [ [ [ 109.075444884266091, 22.652800469408945 ], [ 109.068512378483788, 22.638708162572801 ], [ 109.062716349059244, 22.62791163717414 ], [ 109.05430642401187, 22.624161265193553 ], [ 109.045896498964495, 22.619388064490987 ], [ 109.034531735386963, 22.61688781650393 ], [ 109.029985829955947, 22.608023300913448 ], [ 109.021121314365459, 22.597681366057891 ], [ 109.012256798774985, 22.585634716665702 ], [ 109.008733722065955, 22.575520077081695 ], [ 109.003960521363382, 22.571087819286454 ], [ 109.002255806826753, 22.564496256411484 ], [ 109.000352208927509, 22.561086827338222 ], [ 108.997113251307908, 22.560944767793504 ], [ 108.996402953584322, 22.558387695988557 ], [ 108.995607420133894, 22.555802212274671 ], [ 108.990152333616678, 22.554438440645363 ], [ 108.988305559535334, 22.554211145373813 ], [ 108.987481614175962, 22.553074669016059 ], [ 108.987254318904405, 22.550347125757451 ], [ 108.984015361284804, 22.549864123305404 ], [ 108.983788066013233, 22.548557175493986 ], [ 108.984810894735205, 22.547278639591514 ], [ 108.983219827834361, 22.544153329607692 ], [ 108.982225411021318, 22.542903205614163 ], [ 108.979924046396874, 22.543755562882478 ], [ 108.977054443593545, 22.542619086524724 ], [ 108.976088438689445, 22.539522188449844 ], [ 108.976713500686216, 22.536567349919686 ], [ 108.975889555326845, 22.533754570934246 ], [ 108.974781490878044, 22.532135092124445 ], [ 108.972565361980429, 22.532731742212267 ], [ 108.9698946425397, 22.532845389848042 ], [ 108.967962632731528, 22.530146258498377 ], [ 108.968331987547799, 22.526992536605611 ], [ 108.966655684920113, 22.525060526797429 ], [ 108.964496379840384, 22.52281598599086 ], [ 108.96330307966474, 22.51909402591922 ], [ 108.96168360085494, 22.518838318738723 ], [ 108.959723179137811, 22.518923554465555 ], [ 108.959268588594711, 22.516593777932162 ], [ 108.959439060048382, 22.515173182484968 ], [ 108.957876405056453, 22.515002711031308 ], [ 108.956313750064538, 22.513923058491439 ], [ 108.954807918890509, 22.51059886514501 ], [ 108.953472559170152, 22.50778608615957 ], [ 108.953273675807594, 22.494347253229126 ], [ 108.94486375076022, 22.486391918724848 ], [ 108.939295016607232, 22.475254450418863 ], [ 108.933953577725788, 22.468662887543893 ], [ 108.940317845329204, 22.456616238151703 ], [ 108.939323428516175, 22.442353459861895 ], [ 108.935004818356717, 22.431556934463234 ], [ 108.926594893309343, 22.423033361780082 ], [ 108.922048987878327, 22.417066860901869 ], [ 108.920798863884784, 22.412975546013964 ], [ 108.922304695058813, 22.408713759672388 ], [ 108.922276283149884, 22.402292668251079 ], [ 108.923924173868627, 22.397576291366402 ], [ 108.929265612750072, 22.391212023762979 ], [ 108.93489117072096, 22.387404827964506 ], [ 108.936425413803917, 22.380926912725307 ], [ 108.938584718883661, 22.374164878396673 ], [ 108.938357423612104, 22.366777782071278 ], [ 108.938016480704761, 22.361549990825601 ], [ 108.943016976678877, 22.355015251768517 ], [ 108.944437572126063, 22.352174060874134 ], [ 108.944835338851291, 22.343934607280421 ], [ 108.947562882109892, 22.336320215683472 ], [ 108.947562882109892, 22.333649496242753 ], [ 108.945630872301706, 22.332342548431335 ], [ 108.945261517485449, 22.331461779254074 ], [ 108.946511641478978, 22.329018355084902 ], [ 108.944750103124449, 22.326233988008404 ], [ 108.942477150408948, 22.324642921107554 ], [ 108.940658788236547, 22.322540439845707 ], [ 108.942022559865848, 22.317312648600041 ], [ 108.941227026415433, 22.314300986251986 ], [ 108.939976902421904, 22.310948380996614 ], [ 108.94003372623979, 22.30787989483068 ], [ 108.937703949706389, 22.305436470661508 ], [ 108.937757222035685, 22.297814976087324 ], [ 108.941848536923601, 22.290598351215589 ], [ 108.943894194367559, 22.283097607254412 ], [ 108.944348784910659, 22.277926639826635 ], [ 108.944632904000088, 22.269744010050808 ], [ 108.94355325146023, 22.264004804444152 ], [ 108.939859703297529, 22.262072794635969 ], [ 108.935597916955956, 22.259629370466801 ], [ 108.923664915199538, 22.26156138027498 ], [ 108.916902880870921, 22.260538551553001 ], [ 108.912072856350463, 22.253151455227602 ], [ 108.907413303283676, 22.247866840164047 ], [ 108.90346404794046, 22.250367088151108 ], [ 108.901929804857502, 22.249628378518569 ], [ 108.902725338307931, 22.245934830355871 ], [ 108.898974966327344, 22.243264110915149 ], [ 108.889314917286427, 22.242411753646834 ], [ 108.886928316935155, 22.235820190771861 ], [ 108.88249605913991, 22.234115476235235 ], [ 108.875336258086065, 22.233660885692132 ], [ 108.874427076999865, 22.231558404430288 ], [ 108.878234272798338, 22.225478255916308 ], [ 108.876984148804809, 22.218602573951898 ], [ 108.870619881201378, 22.214227139974543 ], [ 108.865335266137834, 22.210022177450856 ], [ 108.861187127432032, 22.204680738569408 ], [ 108.857379931633545, 22.199282475870078 ], [ 108.842037500803883, 22.192918208266658 ], [ 108.832263804127209, 22.18945195537551 ], [ 108.823171993265177, 22.171779748012444 ], [ 108.80998886751523, 22.16473359459437 ], [ 108.796351151222183, 22.163142527693516 ], [ 108.789986883618766, 22.154278012103035 ], [ 108.776803757868848, 22.154505307374592 ], [ 108.772712442980932, 22.15109587830133 ], [ 108.764075222662001, 22.147459153956518 ], [ 108.759302021959442, 22.141549476896202 ], [ 108.757597307422785, 22.125525160251875 ], [ 108.741686638414237, 22.110978262872628 ], [ 108.720320882888458, 22.1018864520106 ], [ 108.709410709854026, 22.073701838338309 ], [ 108.705546690237625, 22.068928637635736 ], [ 108.715093091642757, 22.057563874058197 ], [ 108.694636517203193, 22.045289929394457 ], [ 108.679180438737745, 22.042107795592749 ], [ 108.670997808961914, 22.023924173868689 ], [ 108.654632549410266, 22.007558914317034 ], [ 108.650995825065451, 21.981192662817151 ], [ 108.638267289858618, 21.963918222179295 ], [ 108.635539746600003, 21.95391723023106 ], [ 108.625084164108671, 21.950280505886248 ], [ 108.62372039247937, 21.931187703075988 ], [ 108.601900046410492, 21.919368348955349 ], [ 108.608264314013908, 21.905730632662305 ], [ 108.608718904557023, 21.888001601481346 ], [ 108.629175478996586, 21.885728648765838 ], [ 108.629175478996615, 21.878455200076218 ], [ 108.607184163938669, 21.862988975131334 ], [ 108.596785405265223, 21.85099914955703 ], [ 108.593091857102507, 21.836338604542007 ], [ 108.585534786858872, 21.822995153817839 ], [ 108.566327838877427, 21.802471609080953 ], [ 108.553713448841776, 21.776626918421485 ], [ 108.556213696828834, 21.748896895292294 ], [ 108.56382808842578, 21.740259674973363 ], [ 108.569851413121881, 21.72889491139583 ], [ 108.577920395261927, 21.720257691076899 ], [ 108.585080196315786, 21.709574813314013 ], [ 108.601900046410535, 21.706619974783859 ] ] ] } }
]
}
